[{"OBJECT_NAME":"YAOGAN-16 01C","OBJECT_ID":"2012-066C","EPOCH":"2026-03-09T23:09:27.258912","MEAN_MOTION":13.45493604,"ECCENTRICITY":0.04277831,"INCLINATION":63.3553,"RA_OF_ASC_NODE":185.7575,"ARG_OF_PERICENTER":25.6135,"MEAN_ANOMALY":336.542,"EPHEMERIS_TYPE":0,"CLASSIFICATION_TYPE":"U","NORAD_CAT_ID":39013,"ELEMENT_SET_NO":999,"REV_AT_EPOCH":65278,"BSTAR":9.6966797e-5,"MEAN_MOTION_DOT":9.0e-8,"MEAN_MOTION_DDOT":0},{"OBJECT_NAME":"COSMOS 1266","OBJECT_ID":"1981-037A","EPOCH":"2026-03-09T17:24:35.810208","MEAN_MOTION":13.90609324,"ECCENTRICITY":0.00496346,"INCLINATION":64.7606,"RA_OF_ASC_NODE":216.3597,"ARG_OF_PERICENTER":288.6247,"MEAN_ANOMALY":70.9428,"EPHEMERIS_TYPE":0,"CLASSIFICATION_TYPE":"U","NORAD_CAT_ID":12409,"ELEMENT_SET_NO":999,"REV_AT_EPOCH":27885,"BSTAR":3.3852205e-5,"MEAN_MOTION_DOT":-4.9e-7,"MEAN_MOTION_DDOT":0}]
